NORAD_CAT_ID,OBJECT_NAME,OBJECT_TYPE,EPOCH,MEAN_MOTION,ECCENTRICITY,INCLINATION,RA_OF_ASC_NODE,ARG_OF_PERICENTER,MEAN_ANOMALY,BSTAR,MEAN_MOTION_DOT,MEAN_MOTION_DDOT,TLE_LINE0,TLE_LINE1,TLE_LINE2,SEMIMAJOR_AXIS,PERIOD,APOGEE,PERIGEE,DECAYED
51889.0,STARLINK-3547,PAYLOAD,2023-05-02 01:30:29,15.0885668,0.000132,53.2175,359.6538,96.0173,264.097,0.0009571,0.00014984,0.0,0 STARLINK-3547,1 51889U 22022AP  23122.06283704  .00014984  00000-0  95710-3 0  9990,2 51889  53.2175 359.6538 0001320  96.0173 264.0970 15.08856680 65845,6917.829,95.436,540.608,538.781,0.0
51889.0,STARLINK-3547,PAYLOAD,2023-05-02 18:59:43,15.0884736,0.0001503,53.2181,356.3808,76.6996,283.4163,9.4902e-05,1.223e-05,0.0,0 STARLINK-3547,1 51889U 22022AP  23122.79147661  .00001223  00000-0  94902-4 0  9996,2 51889  53.2181 356.3808 0001503  76.6996 283.4163 15.08847360 65952,6917.858,95.437,540.763,538.683,0.0
51889.0,STARLINK-3547,PAYLOAD,2023-05-02 22:10:29,15.08845446,0.0001208,53.2177,355.7872,94.7956,265.3174,0.00026569,3.944e-05,0.0,0 STARLINK-3547,1 51889U 22022AP  23122.92395636  .00003944  00000-0  26569-3 0  9993,2 51889  53.2177 355.7872 0001208  94.7956 265.3174 15.08845446 65976,6917.864,95.437,540.564,538.893,0.0
51889.0,STARLINK-3547,PAYLOAD,2023-05-03 01:21:15,15.08849786,0.0001239,53.2183,355.1915,83.9393,276.1741,0.00029097,4.347e-05,0.0,0 STARLINK-3547,1 51889U 22022AP  23123.05643469  .00004347  00000-0  29097-3 0  9995,2 51889  53.2183 355.1915 0001239  83.9393 276.1741 15.08849786 65997,6917.85,95.437,540.573,538.858,0.0
51889.0,STARLINK-3547,PAYLOAD,2023-05-03 20:25:54,15.08838585,0.0001311,53.218,351.6249,90.566,269.5482,-6.9819e-05,-1.399e-05,0.0,0 STARLINK-3547,1 51889U 22022AP  23123.85131961 -.00001399  00000-0 -69819-4 0  9995,2 51889  53.2180 351.6249 0001311  90.5660 269.5482 15.08838585 66115,6917.885,95.438,540.657,538.843,0.0
51889.0,STARLINK-3547,PAYLOAD,2023-05-03 22:01:17,15.08839385,0.0001361,53.2181,351.3277,90.0565,270.0583,-5.6119e-05,-1.181e-05,0.0,0 STARLINK-3547,1 51889U 22022AP  23123.91755918 -.00001181  00000-0 -56119-4 0  9994,2 51889  53.2181 351.3277 0001361  90.0565 270.0583 15.08839385 66127,6917.882,95.438,540.689,538.806,0.0
51889.0,STARLINK-3547,PAYLOAD,2023-05-04 07:33:36,15.08839757,0.0001346,53.2186,349.5432,84.6648,275.4498,-3.3153e-05,-8.15e-06,0.0,0 STARLINK-3547,1 51889U 22022AP  23124.31500218 -.00000815  00000-0 -33153-4 0  9996,2 51889  53.2186 349.5432 0001346  84.6648 275.4498 15.08839757 66181,6917.881,95.438,540.677,538.815,0.0
51889.0,STARLINK-3547,PAYLOAD,2023-05-04 21:52:04,15.08843934,0.0001127,53.2181,346.87,88.9839,271.1282,4.4366e-05,4.18e-06,0.0,0 STARLINK-3547,1 51889U 22022AP  23124.91115891  .00000418  00000-0  44366-4 0  9996,2 51889  53.2181 346.8700 0001127  88.9839 271.1282 15.08843934 66276,6917.868,95.437,540.513,538.954,0.0
51889.0,STARLINK-3547,PAYLOAD,2023-05-05 02:38:13,15.08849804,0.0001163,53.2181,345.976,83.7823,276.3302,0.00012401,1.687e-05,0.0,0 STARLINK-3547,1 51889U 22022AP  23125.10987370  .00001687  00000-0  12401-3 0  9990,2 51889  53.2181 345.9760 0001163  83.7823 276.3302 15.08849804 66304,6917.85,95.437,540.52,538.911,0.0
51889.0,STARLINK-3547,PAYLOAD,2023-05-05 21:42:51,15.08836788,0.0001017,53.2169,342.4084,95.0089,265.1019,8.1594e-05,1.011e-05,0.0,0 STARLINK-3547,1 51889U 22022AP  23125.90476494  .00001011  00000-0  81594-4 0  9999,2 51889  53.2169 342.4084 0001017  95.0089 265.1019 15.08836788 66420,6917.89,95.438,540.459,539.052,0.0
51889.0,STARLINK-3547,PAYLOAD,2023-05-06 21:33:38,15.08847619,9.73e-05,53.2169,337.9477,95.0892,265.0211,0.00015126,2.121e-05,0.0,0 STARLINK-3547,1 51889U 22022AP  23126.89836135  .00002121  00000-0  15126-3 0  9990,2 51889  53.2169 337.9477 0000973  95.0892 265.0211 15.08847619 66571,6917.857,95.437,540.395,539.049,0.0
51889.0,STARLINK-3547,PAYLOAD,2023-05-07 19:49:03,15.08837176,9.06e-05,53.2167,333.7834,91.3187,268.7909,7.2664e-05,8.69e-06,0.0,0 STARLINK-3547,1 51889U 22022AP  23127.82573028  .00000869  00000-0  72664-4 0  9991,2 51889  53.2167 333.7834 0000906  91.3187 268.7909 15.08837176 66719,6917.889,95.438,540.381,539.127,0.0
51889.0,STARLINK-3547,PAYLOAD,2023-05-07 21:24:26,15.08839591,9.53e-05,53.2166,333.486,90.2592,269.8509,0.00010746,1.423e-05,0.0,0 STARLINK-3547,1 51889U 22022AP  23127.89196937  .00001423  00000-0  10746-3 0  9997,2 51889  53.2166 333.4860 0000953  90.2592 269.8509 15.08839591 66726,6917.882,95.438,540.406,539.087,0.0
51889.0,STARLINK-3547,PAYLOAD,2023-05-08 19:39:49,15.08849826,9.96e-05,53.2163,329.3222,82.409,277.7015,0.00018379,2.639e-05,0.0,0 STARLINK-3547,1 51889U 22022AP  23128.81932655  .00002639  00000-0  18379-3 0  9995,2 51889  53.2163 329.3222 0000996  82.4090 277.7015 15.08849826 66869,6917.85,95.437,540.404,539.026,0.0
51889.0,STARLINK-3547,PAYLOAD,2023-05-09 22:41:22,15.08854089,8.96e-05,53.2165,324.266,85.413,274.6964,0.00036838,5.582e-05,0.0,0 STARLINK-3547,1 51889U 22022AP  23129.94540509  .00005582  00000-0  36838-3 0  9993,2 51889  53.2165 324.2660 0000896  85.4130 274.6964 15.08854089 67034,6917.837,95.437,540.322,539.082,0.0
51889.0,STARLINK-3547,PAYLOAD,2023-05-10 19:21:23,15.0884956,0.000105,53.2164,320.4008,85.3245,274.7867,0.00018202,2.611e-05,0.0,0 STARLINK-3547,1 51889U 22022AP  23130.80652589  .00002611  00000-0  18202-3 0  9997,2 51889  53.2164 320.4008 0001050  85.3245 274.7867 15.08849560 67161,6917.851,95.437,540.443,538.99,0.0
51889.0,STARLINK-3547,PAYLOAD,2023-05-11 03:18:19,15.08839333,9.49e-05,53.2172,318.9146,116.9442,243.1647,-4.0045e-05,-9.25e-06,0.0,0 STARLINK-3547,1 51889U 22022AP  23131.13772604 -.00000925  00000-0 -40045-4 0  9994,2 51889  53.2172 318.9146 0000949 116.9442 243.1647 15.08839333 67210,6917.882,95.438,540.404,539.091,0.0
51889.0,STARLINK-3547,PAYLOAD,2023-05-11 19:12:11,15.08840825,0.0001042,53.2166,315.9414,91.5548,268.5563,4.428e-05,4.17e-06,0.0,0 STARLINK-3547,1 51889U 22022AP  23131.80012809  .00000417  00000-0  44280-4 0  9991,2 51889  53.2166 315.9414 0001042  91.5548 268.5563 15.08840825 67315,6917.878,95.438,540.464,539.022,0.0
51889.0,STARLINK-3547,PAYLOAD,2023-05-12 04:44:29,15.08841059,0.0001048,53.2167,314.1573,92.6242,267.487,9.5402e-05,1.231e-05,0.0,0 STARLINK-3547,1 51889U 22022AP  23132.19756871  .00001231  00000-0  95402-4 0  9995,2 51889  53.2167 314.1573 0001048  92.6242 267.4870 15.08841059 67377,6917.877,95.437,540.467,539.017,0.0
51889.0,STARLINK-3547,PAYLOAD,2023-05-12 19:02:58,15.08840722,0.0001032,53.2151,311.4832,100.2662,259.8446,3.0844e-05,2.03e-06,0.0,0 STARLINK-3547,1 51889U 22022AP  23132.79373155  .00000203  00000-0  30844-4 0  9998,2 51889  53.2151 311.4832 0001032 100.2662 259.8446 15.08840722 67463,6917.878,95.438,540.457,539.029,0.0
51889.0,STARLINK-3547,PAYLOAD,2023-05-13 04:35:17,15.08841683,0.0001047,53.2153,309.6984,98.9636,261.1475,4.7046e-05,4.61e-06,0.0,0 STARLINK-3547,1 51889U 22022AP  23133.19117104  .00000461  00000-0  47046-4 0  9991,2 51889  53.2153 309.6984 0001047  98.9636 261.1475 15.08841683 67524,6917.875,95.437,540.465,539.016,0.0
51889.0,STARLINK-3547,PAYLOAD,2023-05-13 18:53:45,15.08845661,0.0001025,53.2154,307.0215,96.739,263.3719,0.00016515,2.342e-05,0.0,0 STARLINK-3547,1 51889U 22022AP  23133.78732989  .00002342  00000-0  16515-3 0  9996,2 51889  53.2154 307.0215 0001025  96.7390 263.3719 15.08845661 67618,6917.863,95.437,540.437,539.019,0.0
51889.0,STARLINK-3547,PAYLOAD,2023-05-14 04:26:04,15.08842444,0.0001,53.2155,305.2371,96.4631,263.6475,0.00011414,1.529e-05,0.0,0 STARLINK-3547,1 51889U 22022AP  23134.18477162  .00001529  00000-0  11414-3 0  9999,2 51889  53.2155 305.2371 0001000  96.4631 263.6475 15.08842444 67674,6917.873,95.437,540.43,539.046,0.0
51889.0,STARLINK-3547,PAYLOAD,2023-05-14 18:44:34,15.08796687,0.00012,53.2162,302.5618,106.3654,253.747,0.0012024,0.00018877,0.0,0 STARLINK-3547,1 51889U 22022AP  23134.78095672  .00018877  00000-0  12024-2 0  9998,2 51889  53.2162 302.5618 0001200 106.3654 253.7470 15.08796687 67766,6918.013,95.44,540.708,539.048,0.0
51889.0,STARLINK-3547,PAYLOAD,2023-05-15 04:16:51,15.08840213,0.0001118,53.2177,300.7739,81.9421,278.1698,5.3478e-06,-2.03e-06,0.0,0 STARLINK-3547,1 51889U 22022AP  23135.17837793 -.00000203  00000-0  53478-5 0  9996,2 51889  53.2177 300.7739 0001118  81.9421 278.1698 15.08840213 67829,6917.88,95.438,540.518,538.971,0.0
51889.0,STARLINK-3547,PAYLOAD,2023-05-15 10:38:24,15.08834794,0.0001128,53.2168,299.5846,83.554,276.5581,4.0421e-05,3.55e-06,0.0,0 STARLINK-3547,1 51889U 22022AP  23135.44334163  .00000355  00000-0  40421-4 0  9999,2 51889  53.2168 299.5846 0001128  83.5540 276.5581 15.08834794 67868,6917.896,95.438,540.542,538.981,0.0
51889.0,STARLINK-3547,PAYLOAD,2023-05-15 16:59:57,15.08838274,0.0001106,53.2161,298.3957,83.7727,276.3391,6.1592e-05,6.93e-06,0.0,0 STARLINK-3547,1 51889U 22022AP  23135.70829917  .00000693  00000-0  61592-4 0  9991,2 51889  53.2161 298.3957 0001106  83.7727 276.3391 15.08838274 67905,6917.886,95.438,540.516,538.986,0.0
51889.0,STARLINK-3547,PAYLOAD,2023-05-16 04:07:38,15.08840948,0.0001112,53.2173,296.3159,83.1141,276.9977,7.6099e-05,9.24e-06,0.0,0 STARLINK-3547,1 51889U 22022AP  23136.17197775  .00000924  00000-0  76099-4 0  9998,2 51889  53.2173 296.3159 0001112  83.1141 276.9977 15.08840948 67975,6917.877,95.437,540.512,538.973,0.0
51889.0,STARLINK-3547,PAYLOAD,2023-05-16 16:50:44,15.08837832,0.00011,53.2165,293.9368,87.2298,272.882,0.00014602,2.037e-05,0.0,0 STARLINK-3547,1 51889U 22022AP  23136.70189835  .00002037  00000-0  14602-3 0  9993,2 51889  53.2165 293.9368 0001100  87.2298 272.8820 15.08837832 68056,6917.887,95.438,540.513,538.991,0.0
51889.0,STARLINK-3547,PAYLOAD,2023-05-17 16:41:31,15.08834091,9.31e-05,53.2178,289.4739,95.7443,264.3656,0.00012788,1.748e-05,0.0,0 STARLINK-3547,1 51889U 22022AP  23137.69550020  .00001748  00000-0  12788-3 0  9991,2 51889  53.2178 289.4739 0000931  95.7443 264.3656 15.08834091 68203,6917.898,95.438,540.408,539.119,0.0
